     2.10           G: GLONASS NAV DATA                     RINEX VERSION / TYPE
teqc  2015Jun23                         20211006 01:25:50UTCPGM / RUN BY / DATE
Linux 2.4.21-27.ELsmp|Opteron|gcc -static|Linux x86_64|=+   COMMENT
  2021     9    12   -0.000000000000D+00                    CORR TO SYSTEM TIME
                                                            END OF HEADER
19 21  9 13 15 45  0.0-1.592105254531D-04-9.094947017729D-13 5.580000000000D+04
   -9.193791503906D+03-1.869986534119D+00 9.313225746155D-10 0.000000000000D+00
    1.604680664062D+04 1.530252456665D+00 0.000000000000D+00 3.000000000000D+00
   -1.757862451172D+04 2.373843193054D+00 9.313225746155D-10 0.000000000000D+00
 6 21  9 13 15 45  0.0-3.495253622532D-06-1.818989403546D-12 5.658000000000D+04
    1.052112500000D+04 4.380369186401D-01 0.000000000000D+00 0.000000000000D+00
    1.635248193359D+04 2.219533920288D+00-0.000000000000D+00-4.000000000000D+00
    1.648053125000D+04-2.481805801392D+00-2.793967723846D-09 0.000000000000D+00
 5 21  9 13 16 15  0.0 7.888395339251D-05 9.094947017729D-13 5.760000000000D+04
    2.279646484375D+03-1.147422790527D-01 1.862645149231D-09 0.000000000000D+00
    2.404747998047D+04-1.125526428223D+00 0.000000000000D+00 1.000000000000D+00
   -8.153050292969D+03-3.351634025574D+00-0.000000000000D+00 0.000000000000D+00
 6 21  9 13 16 15  0.0-3.499910235405D-06-1.818989403546D-12 5.760000000000D+04
    1.144962402344D+04 5.555839538574D-01 0.000000000000D+00 0.000000000000D+00
    1.969648388672D+04 1.472013473511D+00-0.000000000000D+00-4.000000000000D+00
    1.143260205078D+04-3.090503692627D+00-2.793967723846D-09 0.000000000000D+00
 4 21  9 13 16 15  0.0 1.045912504196D-04 1.818989403546D-12 5.760000000000D+04
   -6.636954589844D+03-6.460390090942D-01 9.313225746155D-10 0.000000000000D+00
    1.314225097656D+04-2.782658576965D+00 0.000000000000D+00 6.000000000000D+00
   -2.080540673828D+04-1.550854682922D+00 1.862645149231D-09 0.000000000000D+00
18 21  9 13 16 15  0.0 9.029544889927D-05 9.094947017729D-13 5.760000000000D+04
   -1.905208300781D+04 4.605436325073D-01-9.313225746155D-10 0.000000000000D+00
    1.666215722656D+04-1.162691116333D-01-9.313225746155D-10-3.000000000000D+00
    3.006481933594D+03 3.579914093018D+00 9.313225746155D-10 0.000000000000D+00
19 21  9 13 16 15  0.0-1.592133194208D-04-9.094947017729D-13 5.760000000000D+04
   -1.189881445312D+04-1.128746986389D+00 0.000000000000D+00 0.000000000000D+00
    1.867282080078D+04 1.340264320374D+00-0.000000000000D+00 3.000000000000D+00
   -1.268190332031D+04 3.031659126282D+00 9.313225746155D-10 0.000000000000D+00
16 21  9 13 16 15  0.0-2.134963870049D-05-9.094947017729D-13 5.769000000000D+04
    3.362174804688D+03-2.961129188538D+00-9.313225746155D-10 0.000000000000D+00
    1.195331347656D+04-7.358398437500D-01-9.313225746155D-10-1.000000000000D+00
    2.224872558594D+04 8.540563583374D-01-1.862645149231D-09 0.000000000000D+00
 5 21  9 13 16 45  0.0 7.888488471508D-05 9.094947017729D-13 5.940000000000D+04
    1.684077148438D+03-5.736055374146D-01 1.862645149231D-09 0.000000000000D+00
    2.137547656250D+04-1.808149337769D+00-0.000000000000D+00 1.000000000000D+00
   -1.379217675781D+04-2.873317718506D+00 0.000000000000D+00 0.000000000000D+00
 6 21  9 13 16 45  0.0-3.504566848278D-06-1.818989403546D-12 5.940000000000D+04
    1.237467285156D+04 4.303598403931D-01 9.313225746155D-10 0.000000000000D+00
    2.159846386719D+04 6.361017227173D-01-0.000000000000D+00-4.000000000000D+00
    5.498797363281D+03-3.459698677063D+00-1.862645149231D-09 0.000000000000D+00
 4 21  9 13 16 45  0.0 1.045940443873D-04 1.818989403546D-12 5.940000000000D+04
   -8.257132812500D+03-1.150326728821D+00 9.313225746155D-10 0.000000000000D+00
    7.978683105469D+03-2.903395652771D+00 0.000000000000D+00 6.000000000000D+00
   -2.275469433594D+04-6.009283065796D-01 2.793967723846D-09 0.000000000000D+00
18 21  9 13 16 45  0.0 9.029731154442D-05 9.094947017729D-13 5.940000000000D+04
   -1.773920947266D+04 9.581127166748D-01-1.862645149231D-09 0.000000000000D+00
    1.579933740234D+04-8.593273162842D-01-0.000000000000D+00-3.000000000000D+00
    9.250387695312D+03 3.312632560730D+00 0.000000000000D+00 0.000000000000D+00
19 21  9 13 16 45  0.0-1.592151820660D-04-9.094947017729D-13 5.940000000000D+04
   -1.326825830078D+04-4.055519104004D-01-0.000000000000D+00 0.000000000000D+00
    2.070610498047D+04 8.757743835449D-01-0.000000000000D+00 3.000000000000D+00
   -6.805523925781D+03 3.455294609070D+00 9.313225746155D-10 0.000000000000D+00
20 21  9 13 16 45  0.0-5.582720041275D-05-0.000000000000D+00 6.009000000000D+04
    1.235229980469D+03-1.825182914734D+00 1.862645149231D-09 0.000000000000D+00
    1.348064453125D+04 2.340326309204D+00 0.000000000000D+00 2.000000000000D+00
   -2.160781787109D+04 1.358113288879D+00 9.313225746155D-10 0.000000000000D+00
 5 21  9 13 17 15  0.0 7.888581603765D-05 9.094947017729D-13 6.120000000000D+04
    1.464575195312D+02-1.145359992981D+00 1.862645149231D-09 0.000000000000D+00
    1.768661083984D+04-2.244679450989D+00-0.000000000000D+00 1.000000000000D+00
   -1.836321044922D+04-2.172613143921D+00 9.313225746155D-10 0.000000000000D+00
 6 21  9 13 17 15  0.0-3.509223461151D-06-1.818989403546D-12 6.120000000000D+04
    1.285210693359D+04 6.195163726807D-02 9.313225746155D-10 0.000000000000D+00
    2.200266406250D+04-1.730384826660D-01-0.000000000000D+00-4.000000000000D+00
   -8.610371093750D+02-3.560808181763D+00-9.313225746155D-10 0.000000000000D+00
18 21  9 13 17 15  0.0 9.029917418957D-05 9.094947017729D-13 6.120000000000D+04
   -1.576027050781D+04 1.194912910461D+00-2.793967723846D-09 0.000000000000D+00
    1.354177587891D+04-1.646671295166D+00-0.000000000000D+00-3.000000000000D+00
    1.477774462891D+04 2.788996696472D+00 0.000000000000D+00 0.000000000000D+00
19 21  9 13 17 15  0.0-1.592179760337D-04-9.094947017729D-13 6.120000000000D+04
   -1.343614111328D+04 1.896095275879D-01-9.313225746155D-10 0.000000000000D+00
    2.168852294922D+04 1.841497421265D-01-0.000000000000D+00 3.000000000000D+00
   -4.034057617188D+02 3.612019538879D+00 9.313225746155D-10 0.000000000000D+00
20 21  9 13 17 15  0.0-5.582906305790D-05-9.094947017729D-13 6.120000000000D+04
   -1.507999511719D+03-1.212882995605D+00 9.313225746155D-10 0.000000000000D+00
    1.762612890625D+04 2.215498924255D+00-0.000000000000D+00 2.000000000000D+00
   -1.835852832031D+04 2.228803634644D+00 9.313225746155D-10 0.000000000000D+00
 7 21  9 13 17 15  0.0-4.121661186218D-05 0.000000000000D+00 6.276000000000D+04
    1.577861328125D+04 1.147734642029D+00-0.000000000000D+00 0.000000000000D+00
    1.287833837891D+04 1.760943412781D+00-0.000000000000D+00 5.000000000000D+00
    1.535799072266D+04-2.665562629700D+00-2.793967723846D-09 0.000000000000D+00
20 21  9 13 17 45  0.0-5.583092570305D-05-9.094947017729D-13 6.300000000000D+04
   -3.130302734375D+03-5.990343093872D-01 0.000000000000D+00 0.000000000000D+00
    2.127741796875D+04 1.793925285339D+00-0.000000000000D+00 2.000000000000D+00
   -1.368773828125D+04 2.927248001099D+00 9.313225746155D-10 0.000000000000D+00
 5 21  9 13 17 45  0.0 7.888674736023D-05 9.094947017729D-13 6.300000000000D+04
   -2.443900878906D+03-1.724733352661D+00 1.862645149231D-09 0.000000000000D+00
    1.346868896484D+04-2.392683029175D+00-0.000000000000D+00 1.000000000000D+00
   -2.151255419922D+04-1.303963661194D+00 1.862645149231D-09 0.000000000000D+00
 6 21  9 13 17 45  0.0-3.513880074024D-06-1.818989403546D-12 6.300000000000D+04
    1.247730468750D+04-5.058479309082D-01 1.862645149231D-09 0.000000000000D+00
    2.105675537109D+04-8.476381301880D-01-0.000000000000D+00-4.000000000000D+00
   -7.154234375000D+03-3.386181831360D+00-0.000000000000D+00 0.000000000000D+00
 7 21  9 13 17 45  0.0-4.121661186218D-05-0.000000000000D+00 6.300000000000D+04
    1.770293505859D+04 9.460458755493D-01 0.000000000000D+00 0.000000000000D+00
    1.536861523438D+04 1.000737190247D+00-0.000000000000D+00 5.000000000000D+00
    1.002803710938D+04-3.218251228333D+00-2.793967723846D-09 0.000000000000D+00
18 21  9 13 17 45  0.0 9.030196815729D-05 9.094947017729D-13 6.300000000000D+04
   -1.360122460938D+04 1.160466194153D+00-2.793967723846D-09 0.000000000000D+00
    9.915717773438D+03-2.360294342041D+00-0.000000000000D+00-3.000000000000D+00
    1.916120703125D+04 2.049970626831D+00-0.000000000000D+00 0.000000000000D+00
19 21  9 13 17 45  0.0-1.592198386788D-04-9.094947017729D-13 6.300000000000D+04
   -1.271400439453D+04 5.722036361694D-01-1.862645149231D-09 0.000000000000D+00
    2.128432861328D+04-6.477928161621D-01-0.000000000000D+00 3.000000000000D+00
    6.029875000000D+03 3.489686012268D+00 0.000000000000D+00 0.000000000000D+00
16 21  9 13 17 45  0.0-2.135336399078D-05-0.000000000000D+00 6.312000000000D+04
   -1.271226806641D+04-2.551878929138D+00-2.793967723846D-09 0.000000000000D+00
    1.140182666016D+04 4.873437881470D-01-0.000000000000D+00-1.000000000000D+00
    1.898652490234D+04-1.987814903259D+00-0.000000000000D+00 0.000000000000D+00
16 21  9 13 18 15  0.0-2.135336399078D-05-0.000000000000D+00 6.480000000000D+04
   -1.674507812500D+04-1.898358345032D+00-2.793967723846D-09 0.000000000000D+00
    1.248067871094D+04 6.768245697021D-01 0.000000000000D+00-1.000000000000D+00
    1.472341601562D+04-2.718122482300D+00 0.000000000000D+00 0.000000000000D+00
 5 21  9 13 18 15  0.0 7.888767868280D-05 9.094947017729D-13 6.480000000000D+04
   -6.000417968750D+03-2.200949668884D+00 9.313225746155D-10 0.000000000000D+00
    9.244757324219D+03-2.255871772766D+00-0.000000000000D+00 1.000000000000D+00
   -2.299699902344D+04-3.347702026367D-01 2.793967723846D-09 0.000000000000D+00
 6 21  9 13 18 15  0.0-3.517605364323D-06-1.818989403546D-12 6.480000000000D+04
    1.095954150391D+04-1.192020416260D+00 1.862645149231D-09 0.000000000000D+00
    1.908246875000D+04-1.304692268372D+00-9.313225746155D-10-4.000000000000D+00
   -1.289373486328D+04-2.949646949768D+00 0.000000000000D+00 0.000000000000D+00
